algorithm,apogee,argOfPerigee,bStar,classificationMarking,elset_created_at,elset_created_by,dataMode,eccentricity,idElset,idOnOrbit,inclination,line1,line2,meanAnomaly,meanMotion,meanMotionDDot,meanMotionDot,origNetwork,perigee,period,raan,revNo,satNo,semiMajorAxis,source,__START_AT,__END_AT,COUNTRY,LAUNCH,LAUNCH_NUM,LAUNCH_PIECE,NORAD_CAT_ID,OBJECT_ID,OBJECT_NAME,OBJECT_NUMBER,OBJECT_TYPE,RCS_SIZE,SATNAME,SITE,satcat_current_fetch_date
SGP4,6937.995,286.7759,1.2249E-4,U,2024-02-01T05:05:15.456Z,system.ob-ingest,REAL,1.154E-4,f18901f0-e6d4-4cf0-bc37-0d0d19cfa4fb,55611,43.0017,1 55611U 23020AU  24031.90445365 +.00001452 +00000+0 +12249-3 0 99992,2 55611  43.0017 203.6689 0001154 286.7759  73.2957 15.02543098053574,73.2957,15.02543098,0.0,1.452E-5,OPS1,6936.394,95.838,203.6689,5357,55611,6937.195,18th SPCS,2024-01-31T21:42:24.795360Z,2024-02-01T12:03:58.258368Z,US,2023-02-12,20,AU,55611,2023-020AU,STARLINK-5730,55611,PAYLOAD,LARGE,STARLINK-5730,AFETR,2024-08-21
SGP4,6938.016,268.1142,1.3655E-5,U,2024-02-01T05:05:15.470Z,system.ob-ingest,REAL,1.165E-4,82388ba9-fda9-49c6-92cb-6a7b72228a78,55619,43.0018,1 55619U 23020BC  24031.88447073 -.00000019 +00000+0 +13655-4 0 99997,2 55619  43.0018 203.5183 0001165 268.1142  91.9566 15.02538925053579,91.9566,15.02538925,0.0,-1.9E-7,OPS1,6936.399,95.838,203.5183,5357,55619,6937.208,18th SPCS,2024-01-31T21:13:38.271072Z,2024-02-01T11:35:11.641632Z,US,2023-02-12,20,BC,55619,2023-020BC,STARLINK-5720,55619,PAYLOAD,LARGE,STARLINK-5720,AFETR,2024-08-21
SGP4,6951.95,257.01,-2.6012E-5,U,2024-02-01T05:05:15.494Z,system.ob-ingest,REAL,2.519E-4,e49bdda5-cdcb-44b9-98cf-6185fcc502df,55645,70.0017,1 55645U 23021T   24031.79988605 -.00000403 +00000+0 -26012-4 0 99997,2 55645  70.0017 320.7850 0002519 257.0100 103.0778 14.98327869053763,103.0778,14.98327869,0.0,-4.03E-6,OPS1,6948.449,96.107,320.785,5376,55645,6950.199,18th SPCS,2024-01-31T19:11:50.154720Z,2024-02-01T03:12:30.522240Z,US,2023-02-17,21,T,55645,2023-021T,STARLINK-5102,55645,PAYLOAD,LARGE,STARLINK-5102,AFWTR,2024-08-21
SGP4,6952.025,258.2501,-1.7027E-6,U,2024-01-31T15:05:14.342Z,system.ob-ingest,REAL,2.644E-4,17a23bd5-d84c-4461-ac90-a478a5ce781f,55772,70.0017,1 55772U 23028AH  24031.33717878 -.00000113 +00000+0 -17027-5 0 99992,2 55772  70.0017   1.6541 0002644 258.2501 101.8362 14.98331903051445,101.8362,14.98331903,0.0,-1.13E-6,OPS1,6948.349,96.107,1.6541,5144,55772,6950.187,18th SPCS,2024-01-31T08:05:32.246592Z,2024-02-01T08:07:33.406176Z,US,2023-03-03,28,AH,55772,2023-028AH,STARLINK-5835,55772,PAYLOAD,LARGE,STARLINK-5835,AFWTR,2024-08-21
SGP4,6937.821,252.9965,0.0012118,U,2024-01-31T23:05:17.443Z,system.ob-ingest,REAL,8.96E-5,9f6b3a14-db6e-442f-87fa-3e2ecf39984f,56298,43.0029,1 56298U 23056N   24031.55297778 +.00016206 +00000+0 +12118-2 0 99994,2 56298  43.0029  64.2621 0000896 252.9965 107.0779 15.02541669044538,107.0779,15.02541669,0.0,1.6206E-4,OPS1,6936.578,95.838,64.2621,4453,56298,6937.199,18th SPCS,2024-01-31T13:16:17.280192Z,2024-02-01T10:00:44.844480Z,US,2023-04-19,56,N,56298,2023-056N,STARLINK-30109,56298,PAYLOAD,LARGE,STARLINK-30109,AFETR,2024-08-21
SGP4,6942.952,63.1963,-1.6418E-5,U,2024-02-01T05:05:15.212Z,system.ob-ingest,REAL,2.555E-4,5bac2ed2-69f7-4088-87f6-afc34905cdac,56331,97.6579,1 56331U 23058Q   24031.95100863 -.00000270 +00000+0 -16418-4 0 99991,2 56331  97.6579  34.7359 0002555  63.1963 296.9522 15.01249880042941,296.9522,15.0124988,0.0,-2.7E-6,OPS1,6939.405,95.92,34.7359,4294,56331,6941.178,18th SPCS,2024-01-31T22:49:27.145632Z,2024-02-01T03:37:22.869696Z,US,2023-04-27,58,Q,56331,2023-058Q,STARLINK-5991,56331,PAYLOAD,MEDIUM,STARLINK-5991,AFWTR,2024-08-21
SGP4,6937.922,257.265,9.4513E-5,U,2024-01-31T23:05:17.452Z,system.ob-ingest,REAL,1.054E-4,fa8eb346-6e94-494c-b771-54902913fcda,56394,43.005,1 56394U 23061W   24031.36297098 +.00001074 +00000+0 +94513-4 0 99999,2 56394  43.0050  39.7512 0001054 257.2650 102.8074 15.02544232041325,102.8074,15.02544232,0.0,1.074E-5,OPS1,6936.46,95.837,39.7512,4132,56394,6937.191,18th SPCS,2024-01-31T08:42:40.692672Z,2024-02-01T02:15:41.943744Z,US,2023-05-04,61,W,56394,2023-061W,STARLINK-6305,56394,PAYLOAD,LARGE,STARLINK-6305,AFETR,2024-08-21
SGP4,6937.981,259.023,7.4156E-5,U,2024-01-31T15:05:14.490Z,system.ob-ingest,REAL,1.118E-4,7ae614f6-f31d-4cd9-ab4d-876787bf8f38,56420,43.0052,1 56420U 23061AY  24031.27899358 +.00000798 +00000+0 +74156-4 0 99999,2 56420  43.0052  26.9700 0001118 259.0230 101.0486 15.02539540041750,101.0486,15.0253954,0.0,7.98E-6,OPS1,6936.43,95.838,26.97,4175,56420,6937.206,18th SPCS,2024-01-31T06:41:45.045312Z,2024-02-01T01:50:29.819328Z,US,2023-05-04,61,AY,56420,2023-061AY,STARLINK-6272,56420,PAYLOAD,LARGE,STARLINK-6272,AFETR,2024-08-21
SGP4,6952.115,268.329,-1.6196E-5,U,2024-01-31T23:05:17.697Z,system.ob-ingest,REAL,2.76E-4,26046584-2462-430b-8832-e7f05c08d246,56477,69.9979,1 56477U 23064AF  24031.63243498 -.00000286 +00000+0 -16196-4 0 99996,2 56477  69.9979 260.9234 0002760 268.3290  91.7553 14.98328593040692,91.7553,14.98328593,0.0,-2.86E-6,OPS1,6948.279,96.107,260.9234,4069,56477,6950.197,18th SPCS,2024-01-31T15:10:42.382272Z,2024-02-01T00:47:30.804288Z,US,2023-05-10,64,AF,56477,2023-064AF,STARLINK-5534,56477,PAYLOAD,LARGE,STARLINK-5534,AFWTR,2024-08-21
SGP4,6952.16,259.7744,2.698E-6,U,2024-02-01T05:05:15.720Z,system.ob-ingest,REAL,2.844E-4,9b939a95-2a86-456f-b2b4-633dd429faa0,56794,69.9998,1 56794U 23078AD  24031.61372387 -.00000061 +00000+0 +26980-5 0 99994,2 56794  69.9998 101.0330 0002844 259.7744 100.3094 14.98333171038128,100.3094,14.98333171,0.0,-6.1E-7,OPS1,6948.206,96.107,101.033,3812,56794,6950.183,18th SPCS,2024-01-31T14:43:45.742368Z,2024-02-01T11:33:31.000320Z,US,2023-05-31,78,AD,56794,2023-078AD,STARLINK-6060,56794,PAYLOAD,LARGE,STARLINK-6060,AFWTR,2024-08-21
SGP4,6938.085,266.2112,-3.6986E-5,U,2024-02-01T05:05:15.374Z,system.ob-ingest,REAL,1.242E-4,2749eed4-3a51-4144-a282-99b334b64be8,57072,43.0047,1 57072U 23088AA  24031.86794667 -.00000703 +00000+0 -36986-4 0 99991,2 57072  43.0047 307.0897 0001242 266.2112  93.8588 15.02533799034039,93.8588,15.02533799,0.0,-7.03E-6,OPS1,6936.362,95.838,307.0897,3403,57072,6937.223,18th SPCS,2024-01-31T20:49:50.592288Z,2024-02-01T01:37:01.354656Z,US,2023-06-22,88,AA,57072,2023-088AA,STARLINK-5843,57072,PAYLOAD,LARGE,STARLINK-5843,AFWTR,2024-08-21
SGP4,6938.034,268.6469,0.0010527,U,2024-01-31T23:05:17.796Z,system.ob-ingest,REAL,1.224E-4,c0526083-9612-4d0e-a9b3-1e3fc247988e,57088,43.0033,1 57088U 23088AS  24031.17097488 +.00014049 +00000+0 +10527-2 0 99996,2 57088  43.0033 310.4606 0001224 268.6469  91.4233 15.02546397034914,91.4233,15.02546397,0.0,1.4049E-4,OPS1,6936.335,95.837,310.4606,3491,57088,6937.185,18th SPCS,2024-01-31T04:06:12.229632Z,2024-02-01T02:26:24.078048Z,US,2023-06-22,88,AS,57088,2023-088AS,STARLINK-6257,57088,PAYLOAD,LARGE,STARLINK-6257,AFWTR,2024-08-21
SGP4,6938.047,262.8838,6.7238E-5,U,2024-01-31T23:05:17.805Z,system.ob-ingest,REAL,1.204E-4,8e1c9989-8162-41c5-82ab-4921f7d42b92,57091,43.0035,1 57091U 23088AV  24031.81910325 +.00000705 +00000+0 +67238-4 0 99992,2 57091  43.0035 306.7188 0001204 262.8838  97.1867 15.02537605034106,97.1867,15.02537605,0.0,7.05E-6,OPS1,6936.376,95.838,306.7188,3410,57091,6937.212,18th SPCS,2024-01-31T19:39:30.520800Z,2024-02-01T05:13:52.708224Z,US,2023-06-22,88,AV,57091,2023-088AV,STARLINK-6262,57091,PAYLOAD,LARGE,STARLINK-6262,AFWTR,2024-08-21
SGP4,6938.106,271.5083,3.2095E-4,U,2024-02-01T05:05:15.600Z,system.ob-ingest,REAL,1.316E-4,1f32a9d5-8df2-4129-bbdf-d091439112d4,57121,43.0037,1 57121U 23090W   24031.71661994 +.00004135 +00000+0 +32095-3 0 99996,2 57121  43.0037 127.3118 0001316 271.5083  88.5609 15.02543674034702,88.5609,15.02543674,0.0,4.135E-5,OPS1,6936.28,95.837,127.3118,3470,57121,6937.193,18th SPCS,2024-01-31T17:11:55.962816Z,2024-02-01T10:44:56.721408Z,US,2023-06-23,90,W,57121,2023-090W,STARLINK-6152,57121,PAYLOAD,LARGE,STARLINK-6152,AFETR,2024-08-21
SGP4,6938.063,257.4381,-3.4711E-5,U,2024-01-31T23:05:17.903Z,system.ob-ingest,REAL,1.25E-4,44c39570-92c3-4e05-8d47-19fa26b936da,57134,43.0032,1 57134U 23090AK  24031.57959521 -.00000673 +00000+0 -34711-4 0 99993,2 57134  43.0032 115.8401 0001250 257.4381 102.6322 15.02542619034820,102.6322,15.02542619,0.0,-6.73E-6,OPS1,6936.329,95.838,115.8401,3482,57134,6937.196,18th SPCS,2024-01-31T13:54:37.026144Z,2024-02-01T10:39:05.457024Z,US,2023-06-23,90,AK,57134,2023-090AK,STARLINK-6133,57134,PAYLOAD,LARGE,STARLINK-6133,AFETR,2024-08-21
SGP4,6937.954,266.5902,0.0016587,U,2024-02-01T05:05:15.434Z,system.ob-ingest,REAL,1.15E-4,be38fb63-9dd3-44f9-a422-9044de7938c7,57308,43.0026,1 57308U 23096U   24031.62243436 +.00022285 +00000+0 +16587-2 0 99999,2 57308  43.0026  76.3206 0001150 266.5902  93.4808 15.02555459031176,93.4808,15.02555459,0.0,2.2285E-4,OPS1,6936.359,95.837,76.3206,3117,57308,6937.157,18th SPCS,2024-01-31T14:56:18.328704Z,2024-02-01T11:40:46.623936Z,US,2023-07-10,96,U,57308,2023-096U,STARLINK-30194,57308,PAYLOAD,LARGE,STARLINK-30194,AFETR,2024-08-21
SGP4,6938.138,273.406,9.2979E-4,U,2024-02-01T05:05:15.607Z,system.ob-ingest,REAL,1.408E-4,86fd8841-226d-44f0-b057-b0d6b5d66d18,57349,43.0033,1 57349U 23099X   24031.68391662 +.00012384 +00000+0 +92979-3 0 99997,2 57349  43.0033 101.6656 0001408 273.4060  86.6621 15.02554075031314,86.6621,15.02554075,0.0,1.2384E-4,OPS1,6936.184,95.837,101.6656,3131,57349,6937.161,18th SPCS,2024-01-31T16:24:50.395968Z,2024-02-01T09:57:51.605568Z,US,2023-07-16,99,X,57349,2023-099X,STARLINK-6376,57349,PAYLOAD,LARGE,STARLINK-6376,AFETR,2024-08-21
